{"type": "FeatureCollection", "features": [ {"type": "Feature", "properties": {"norad_id": 34340, "name": "COSMOS 2251 DEB", "group": "cosmos-2251-debris", "lat": -24.783098413538422, "lon": -80.74629954369637, "alt_km": 853.8241602875187, "timestamp": "2025-12-25T09:48:52.683187+00:00", "meta": {"OBJECT_NAME": "COSMOS 2251 DEB", "OBJECT_ID": "1993-036PN", "EPOCH": "2025-12-24T13:57:16.913664", "MEAN_MOTION": 13.79620715, "ECCENTRICITY": 0.02841536, "INCLINATION": 74.0787, "RA_OF_ASC_NODE": 288.2083, "ARG_OF_PERICENTER": 33.246, "MEAN_ANOMALY": 155.4194, "EPHEMERIS_TYPE": 0, "CLASSIFICATION_TYPE": "U", "NORAD_CAT_ID": 34340, "ELEMENT_SET_NO": 999, "REV_AT_EPOCH": 84431, "BSTAR": 0.0016436804, "MEAN_MOTION_DOT": 2.275e-05, "MEAN_MOTION_DDOT": 0}, "tle": {"line1": "1 34340U 93036PN  25358.58144576  .00002275  00000+0  16437-2 0  9996", "line2": "2 34340  74.0787 288.2083 0284153  33.2460 155.4194 13.79620715844311"}}, "geometry": {"type": "Point", "coordinates": [-80.74629954369637, -24.783098413538422]}}, {"type": "Feature", "properties": {"norad_id": 34343, "name": "COSMOS 2251 DEB", "group": "cosmos-2251-debris", "lat": -7.991218208276966, "lon": -112.70940835823981, "alt_km": 680.418083568431, "timestamp": "2025-12-25T09:48:52.683197+00:00", "meta": {"OBJECT_NAME": "COSMOS 2251 DEB", "OBJECT_ID": "1993-036PR", "EPOCH": "2025-12-24T22:19:46.622208", "MEAN_MOTION": 14.69617082, "ECCENTRICITY": 0.0024377, "INCLINATION": 74.02, "RA_OF_ASC_NODE": 65.9128, "ARG_OF_PERICENTER": 337.1013, "MEAN_ANOMALY": 200.5009, "EPHEMERIS_TYPE": 0, "CLASSIFICATION_TYPE": "U", "NORAD_CAT_ID": 34343, "ELEMENT_SET_NO": 999, "REV_AT_EPOCH": 88909, "BSTAR": 0.0013412, "MEAN_MOTION_DOT": 7.987e-05, "MEAN_MOTION_DDOT": 0}, "tle": {"line1": "1 34343U 93036PR  25358.93040072  .00007987  00000+0  13412-2 0  9999", "line2": "2 34343  74.0200  65.9128 0024377 337.1013 200.5009 14.69617082889098"}}, "geometry": {"type": "Point", "coordinates": [-112.70940835823981, -7.991218208276966]}}, {"type": "Feature", "properties": {"norad_id": 34344, "name": "COSMOS 2251 DEB", "group": "cosmos-2251-debris", "lat": 30.856093248067925, "lon": 97.61792072100565, "alt_km": 895.6102702533872, "timestamp": "2025-12-25T09:48:52.683206+00:00", "meta": {"OBJECT_NAME": "COSMOS 2251 DEB", "OBJECT_ID": "1993-036PS", "EPOCH": "2025-12-20T16:41:07.998144", "MEAN_MOTION": 14.16466858, "ECCENTRICITY": 0.01566321, "INCLINATION": 73.9786, "RA_OF_ASC_NODE": 96.1449, "ARG_OF_PERICENTER": 278.7098, "MEAN_ANOMALY": 204.8003, "EPHEMERIS_TYPE": 0, "CLASSIFICATION_TYPE": "U", "NORAD_CAT_ID": 34344, "ELEMENT_SET_NO": 999, "REV_AT_EPOCH": 86209, "BSTAR": 0.0013151537, "MEAN_MOTION_DOT": 2.924e-05, "MEAN_MOTION_DDOT": 0}, "tle": {"line1": "1 34344U 93036PS  25354.69523146  .00002924  00000+0  13152-2 0  9994", "line2": "2 34344  73.9786  96.1449 0156632 278.7098 204.8003 14.16466858862098"}}, "geometry": {"type": "Point", "coordinates": [97.61792072100565, 30.856093248067925]}}, {"type": "Feature", "properties": {"norad_id": 34346, "name": "COSMOS 2251 DEB", "group": "cosmos-2251-debris", "lat": 71.2050387640825, "lon": 52.76371748416236, "alt_km": 738.3469368208189, "timestamp": "2025-12-25T09:48:52.683216+00:00", "meta": {"OBJECT_NAME": "COSMOS 2251 DEB", "OBJECT_ID": "1993-036PU", "EPOCH": "2025-12-24T19:46:25.139712", "MEAN_MOTION": 13.99731331, "ECCENTRICITY": 0.0206198, "INCLINATION": 73.9946, "RA_OF_ASC_NODE": 291.2772, "ARG_OF_PERICENTER": 107.3009, "MEAN_ANOMALY": 286.0021, "EPHEMERIS_TYPE": 0, "CLASSIFICATION_TYPE": "U", "NORAD_CAT_ID": 34346, "ELEMENT_SET_NO": 999, "REV_AT_EPOCH": 85579, "BSTAR": 0.00097331009, "MEAN_MOTION_DOT": 1.689e-05, "MEAN_MOTION_DDOT": 0}, "tle": {"line1": "1 34346U 93036PU  25358.82390208  .00001689  00000+0  97331-3 0  9995", "line2": "2 34346  73.9946 291.2772 0206198 107.3009 286.0021 13.99731331855799"}}, "geometry": {"type": "Point", "coordinates": [52.76371748416236, 71.2050387640825]}}, {"type": "Feature", "properties": {"norad_id": 34383, "name": "COSMOS 2251 DEB", "group": "cosmos-2251-debris", "lat": -72.50161543753549, "lon": 156.91162167576226, "alt_km": 544.1922212062555, "timestamp": "2025-12-25T09:48:52.683226+00:00", "meta": {"OBJECT_NAME": "COSMOS 2251 DEB", "OBJECT_ID": "1993-036PY", "EPOCH": "2025-12-24T20:15:39.275712", "MEAN_MOTION": 15.10109025, "ECCENTRICITY": 0.00029762, "INCLINATION": 74.0196, "RA_OF_ASC_NODE": 272.7129, "ARG_OF_PERICENTER": 43.5305, "MEAN_ANOMALY": 30.393, "EPHEMERIS_TYPE": 0, "CLASSIFICATION_TYPE": "U", "NORAD_CAT_ID": 34383, "ELEMENT_SET_NO": 999, "REV_AT_EPOCH": 89296, "BSTAR": 0.0032579533, "MEAN_MOTION_DOT": 0.00053476, "MEAN_MOTION_DDOT": 0}, "tle": {"line1": "1 34383U 93036PY  25358.84420458  .00053476  00000+0  32580-2 0  9994", "line2": "2 34383  74.0196 272.7129 0002976  43.5305  30.3930 15.10109025892960"}}, "geometry": {"type": "Point", "coordinates": [156.91162167576226, -72.50161543753549]}}, {"type": "Feature", "properties": {"norad_id": 34387, "name": "COSMOS 2251 DEB", "group": "cosmos-2251-debris", "lat": 73.21099809578565, "lon": -100.1012913654621, "alt_km": 764.7535281898736, "timestamp": "2025-12-25T09:48:52.683236+00:00", "meta": {"OBJECT_NAME": "COSMOS 2251 DEB", "OBJECT_ID": "1993-036QC", "EPOCH": "2025-12-24T15:26:30.692256", "MEAN_MOTION": 14.43845157, "ECCENTRICITY": 0.00388856, "INCLINATION": 74.0386, "RA_OF_ASC_NODE": 189.77, "ARG_OF_PERICENTER": 284.5941, "MEAN_ANOMALY": 142.5249, "EPHEMERIS_TYPE": 0, "CLASSIFICATION_TYPE": "U", "NORAD_CAT_ID": 34387, "ELEMENT_SET_NO": 999, "REV_AT_EPOCH": 88353, "BSTAR": 0.00028547411, "MEAN_MOTION_DOT": 9.54e-06, "MEAN_MOTION_DDOT": 0}, "tle": {"line1": "1 34387U 93036QC  25358.64341079  .00000954  00000+0  28547-3 0  9999", "line2": "2 34387  74.0386 189.7700 0038885 284.5941 142.5249 14.43845157883538"}}, "geometry": {"type": "Point", "coordinates": [-100.1012913654621, 73.21099809578565]}}, {"type": "Feature", "properties": {"norad_id": 34388, "name": "COSMOS 2251 DEB", "group": "cosmos-2251-debris", "lat": -37.60782077087134, "lon": -173.39424176051014, "alt_km": 730.8787195298219, "timestamp": "2025-12-25T09:48:52.683305+00:00", "meta": {"OBJECT_NAME": "COSMOS 2251 DEB", "OBJECT_ID": "1993-036QD", "EPOCH": "2025-12-25T00:37:42.826368", "MEAN_MOTION": 14.4942118, "ECCENTRICITY": 0.0013628, "INCLINATION": 74.0378, "RA_OF_ASC_NODE": 200.0607, "ARG_OF_PERICENTER": 247.5964, "MEAN_ANOMALY": 236.586, "EPHEMERIS_TYPE": 0, "CLASSIFICATION_TYPE": "U", "NORAD_CAT_ID": 34388, "ELEMENT_SET_NO": 999, "REV_AT_EPOCH": 88333, "BSTAR": 0.0006517, "MEAN_MOTION_DOT": 2.47e-05, "MEAN_MOTION_DDOT": 0}, "tle": {"line1": "1 34388U 93036QD  25359.02619012  .00002470  00000+0  65170-3 0  9996", "line2": "2 34388  74.0378 200.0607 0013628 247.5964 236.5860 14.49421180883338"}}, "geometry": {"type": "Point", "coordinates": [-173.39424176051014, -37.60782077087134]}}, {"type": "Feature", "properties": {"norad_id": 34389, "name": "COSMOS 2251 DEB", "group": "cosmos-2251-debris", "lat": -14.008787166619278, "lon": -137.7783303819788, "alt_km": 736.8995191166387, "timestamp": "2025-12-25T09:48:52.683318+00:00", "meta": {"OBJECT_NAME": "COSMOS 2251 DEB", "OBJECT_ID": "1993-036QE", "EPOCH": "2025-12-24T19:14:40.362720", "MEAN_MOTION": 14.4155901, "ECCENTRICITY": 0.00294225, "INCLINATION": 74.0174, "RA_OF_ASC_NODE": 227.4475, "ARG_OF_PERICENTER": 337.2443, "MEAN_ANOMALY": 98.9537, "EPHEMERIS_TYPE": 0, "CLASSIFICATION_TYPE": "U", "NORAD_CAT_ID": 34389, "ELEMENT_SET_NO": 999, "REV_AT_EPOCH": 88186, "BSTAR": 0.00028914905, "MEAN_MOTION_DOT": 9.18e-06, "MEAN_MOTION_DDOT": 0}, "tle": {"line1": "1 34389U 93036QE  25358.80185605  .00000918  00000+0  28915-3 0  9999", "line2": "2 34389  74.0174 227.4475 0029422 337.2443  98.9537 14.41559010881860"}}, "geometry": {"type": "Point", "coordinates": [-137.7783303819788, -14.008787166619278]}}, {"type": "Feature", "properties": {"norad_id": 34396, "name": "COSMOS 2251 DEB", "group": "cosmos-2251-debris", "lat": -24.162728250527103, "lon": 91.90076268979935, "alt_km": 654.141559072179, "timestamp": "2025-12-25T09:48:52.683329+00:00", "meta": {"OBJECT_NAME": "COSMOS 2251 DEB", "OBJECT_ID": "1993-036QM", "EPOCH": "2025-12-24T18:13:29.856576", "MEAN_MOTION": 14.74724454, "ECCENTRICITY": 0.00045314, "INCLINATION": 74.0296, "RA_OF_ASC_NODE": 100.5513, "ARG_OF_PERICENTER": 135.4708, "MEAN_ANOMALY": 352.3031, "EPHEMERIS_TYPE": 0, "CLASSIFICATION_TYPE": "U", "NORAD_CAT_ID": 34396, "ELEMENT_SET_NO": 999, "REV_AT_EPOCH": 88523, "BSTAR": 0.0020013684, "MEAN_MOTION_DOT": 0.00013376, "MEAN_MOTION_DDOT": 0}, "tle": {"line1": "1 34396U 93036QM  25358.75937334  .00013376  00000+0  20014-2 0  9998", "line2": "2 34396  74.0296 100.5513 0004531 135.4708 352.3031 14.74724454885236"}}, "geometry": {"type": "Point", "coordinates": [91.90076268979935, -24.162728250527103]}}, {"type": "Feature", "properties": {"norad_id": 34400, "name": "COSMOS 2251 DEB", "group": "cosmos-2251-debris", "lat": 72.21241784471714, "lon": 58.89464617416057, "alt_km": 383.6021103647736, "timestamp": "2025-12-25T09:48:52.683340+00:00", "meta": {"OBJECT_NAME": "COSMOS 2251 DEB", "OBJECT_ID": "1993-036QR", "EPOCH": "2025-12-24T01:07:12.164448", "MEAN_MOTION": 15.58635981, "ECCENTRICITY": 0.00028837, "INCLINATION": 73.9625, "RA_OF_ASC_NODE": 358.2177, "ARG_OF_PERICENTER": 215.0661, "MEAN_ANOMALY": 145.0367, "EPHEMERIS_TYPE": 0, "CLASSIFICATION_TYPE": "U", "NORAD_CAT_ID": 34400, "ELEMENT_SET_NO": 999, "REV_AT_EPOCH": 90150, "BSTAR": 0.0033378255, "MEAN_MOTION_DOT": 0.00264923, "MEAN_MOTION_DDOT": 0}, "tle": {"line1": "1 34400U 93036QR  25358.04666857  .00264923  00000+0  33378-2 0  9998", "line2": "2 34400  73.9625 358.2177 0002883 215.0661 145.0367 15.58635981901502"}}, "geometry": {"type": "Point", "coordinates": [58.89464617416057, 72.21241784471714]}}]}